"BRASILSAT B1" "Sol/Earth"
{
	Mesh "satellite.3ds"
	Radius 0.005

	EllipticalOrbit
	{
		Period          0.99731284
		SemiMajorAxis  42174.75128376943
		Eccentricity    3.193E-4
		Inclination     0.0865
		AscendingNode   127.7041
		ArgOfPericenter 5.5651
		MeanAnomaly     194.5783
		Epoch           2452358.82695424
	}
        Albedo              10
}

"TURKSAT 1B" "Sol/Earth"
{
	Mesh "satellite.3ds"
	Radius 0.005

	EllipticalOrbit
	{
		Period          0.9972682
		SemiMajorAxis  42173.49266263244
		Eccentricity    2.882E-4
		Inclination     0.0162
		AscendingNode   258.0611
		ArgOfPericenter 212.6294
		MeanAnomaly     147.7311
		Epoch           2452358.35405677
	}
        Albedo              10
}

"OPTUS B3" "Sol/Earth"
{
	Mesh "satellite.3ds"
	Radius 0.005

	EllipticalOrbit
	{
		Period          0.99729747
		SemiMajorAxis  42174.31774216041
		Eccentricity    0.0016226
		Inclination     0.0407
		AscendingNode   204.4519
		ArgOfPericenter 287.4189
		MeanAnomaly     103.5086
		Epoch           2452357.94509043
	}
        Albedo              10
}

"COSMOS 2291" "Sol/Earth"
{
	Mesh "satellite.3ds"
	Radius 0.005

	EllipticalOrbit
	{
		Period          0.997825
		SemiMajorAxis  42189.18963521439
		Eccentricity    6.562E-4
		Inclination     4.4666
		AscendingNode   74.2421
		ArgOfPericenter 306.2775
		MeanAnomaly     53.3943
		Epoch           2452353.39964768
	}
        Albedo              10
}

"NSS 703" "Sol/Earth"
{
	Mesh "satellite.3ds"
	Radius 0.005

	EllipticalOrbit
	{
		Period          0.99728215
		SemiMajorAxis  42173.8858787298
		Eccentricity    3.203E-4
		Inclination     0.0208
		AscendingNode   355.3324
		ArgOfPericenter 104.548
		MeanAnomaly     120.0641
		Epoch           2452358.17614487
	}
        Albedo              10
}

"SOLIDARIDAD 2" "Sol/Earth"
{
	Mesh "satellite.3ds"
	Radius 0.005

	EllipticalOrbit
	{
		Period          0.9972716
		SemiMajorAxis  42173.58844620964
		Eccentricity    2.388E-4
		Inclination     0.0075
		AscendingNode   9.2948
		ArgOfPericenter 75.0596
		MeanAnomaly     223.5668
		Epoch           2452361.88239025
	}
        Albedo              10
}

"THAICOM 2" "Sol/Earth"
{
	Mesh "satellite.3ds"
	Radius 0.005

	EllipticalOrbit
	{
		Period          0.99729174
		SemiMajorAxis  42174.15642378356
		Eccentricity    1.07E-4
		Inclination     0.1146
		AscendingNode   77.9968
		ArgOfPericenter 261.9782
		MeanAnomaly     272.7253
		Epoch           2452357.20994396
	}
        Albedo              10
}

"EXPRESS 1" "Sol/Earth"
{
	Mesh "satellite.3ds"
	Radius 0.005

	EllipticalOrbit
	{
		Period          1.0017061
		SemiMajorAxis  42298.516997621395
		Eccentricity    5.783E-4
		Inclination     1.7333
		AscendingNode   91.0331
		ArgOfPericenter 335.3236
		MeanAnomaly     24.4013
		Epoch           2452361.08451987
	}
        Albedo              10
}

"ELEKTRO (GOMS)" "Sol/Earth"
{
	Mesh "satellite.3ds"
	Radius 0.005

	EllipticalOrbit
	{
		Period          0.997419
		SemiMajorAxis  42177.74400440531
		Eccentricity    1.799E-4
		Inclination     4.7515
		AscendingNode   76.5582
		ArgOfPericenter 139.6552
		MeanAnomaly     220.1729
		Epoch           2452361.69716491
	}
        Albedo              10
}

"ASTRA 1D" "Sol/Earth"
{
	Mesh "satellite.3ds"
	Radius 0.005

	EllipticalOrbit
	{
		Period          0.99727803
		SemiMajorAxis  42173.76993058397
		Eccentricity    4.153E-4
		Inclination     0.0722
		AscendingNode   228.2513
		ArgOfPericenter 250.91
		MeanAnomaly     113.0362
		Epoch           2452360.29558086
	}
        Albedo              10
}

"ORION 1" "Sol/Earth"
{
	Mesh "satellite.3ds"
	Radius 0.005

	EllipticalOrbit
	{
		Period          0.9973043
		SemiMajorAxis  42174.51098772651
		Eccentricity    7.87E-5
		Inclination     0.0118
		AscendingNode   306.35
		ArgOfPericenter 142.6938
		MeanAnomaly     337.8435
		Epoch           2452360.00852441
	}
        Albedo              10
}

"LUCH" "Sol/Earth"
{
	Mesh "satellite.3ds"
	Radius 0.005

	EllipticalOrbit
	{
		Period          0.9967462
		SemiMajorAxis  42158.774307423846
		Eccentricity    5.708E-4
		Inclination     3.4808
		AscendingNode   87.317
		ArgOfPericenter 328.9266
		MeanAnomaly     30.7698
		Epoch           2452359.07384038
	}
        Albedo              10
}

"RADUGA 32" "Sol/Earth"
{
	Mesh "satellite.3ds"
	Radius 0.005

	EllipticalOrbit
	{
		Period          0.9973604
		SemiMajorAxis  42176.092223943655
		Eccentricity    4.453E-4
		Inclination     4.2805
		AscendingNode   75.8755
		ArgOfPericenter 19.359
		MeanAnomaly     340.4625
		Epoch           2452360.72897015
	}
        Albedo              10
}

"INTELSAT 704" "Sol/Earth"
{
	Mesh "satellite.3ds"
	Radius 0.005

	EllipticalOrbit
	{
		Period          0.9972811
		SemiMajorAxis  42173.855631402774
		Eccentricity    3.702E-4
		Inclination     0.0019
		AscendingNode   69.7464
		ArgOfPericenter 21.8778
		MeanAnomaly     230.1257
		Epoch           2452360.42764799
	}
        Albedo              10
}

"GMS 5" "Sol/Earth"
{
	Mesh "satellite.3ds"
	Radius 0.005

	EllipticalOrbit
	{
		Period          0.9972379
		SemiMajorAxis  42172.63900770117
		Eccentricity    1.179E-4
		Inclination     1.2332
		AscendingNode   82.6212
		ArgOfPericenter 343.2025
		MeanAnomaly     78.422
		Epoch           2452361.72499584
	}
        Albedo              10
}

"INTELSAT 705" "Sol/Earth"
{
	Mesh "satellite.3ds"
	Radius 0.005

	EllipticalOrbit
	{
		Period          0.9972932
		SemiMajorAxis  42174.19675340669
		Eccentricity    4.865E-4
		Inclination     0.0054
		AscendingNode   280.5234
		ArgOfPericenter 239.7916
		MeanAnomaly     117.8994
		Epoch           2452361.62585649
	}
        Albedo              10
}

"BRASILSAT B2" "Sol/Earth"
{
	Mesh "satellite.3ds"
	Radius 0.005

	EllipticalOrbit
	{
		Period          0.99726415
		SemiMajorAxis  42173.378394362946
		Eccentricity    3.563E-4
		Inclination     0.0562
		AscendingNode   172.1353
		ArgOfPericenter 52.1305
		MeanAnomaly     128.5311
		Epoch           2452360.87670108
	}
        Albedo              10
}

"HOT BIRD 1" "Sol/Earth"
{
	Mesh "satellite.3ds"
	Radius 0.005

	EllipticalOrbit
	{
		Period          0.9972681
		SemiMajorAxis  42173.48930180319
		Eccentricity    7.914E-4
		Inclination     0.101
		AscendingNode   105.7994
		ArgOfPericenter 13.0118
		MeanAnomaly     122.1607
		Epoch           2452325.44647909
	}
        Albedo              10
}

"AMSC 1" "Sol/Earth"
{
	Mesh "satellite.3ds"
	Radius 0.005

	EllipticalOrbit
	{
		Period          0.99726653
		SemiMajorAxis  42173.44561101081
		Eccentricity    2.402E-4
		Inclination     0.0215
		AscendingNode   257.9958
		ArgOfPericenter 209.0182
		MeanAnomaly     201.4731
		Epoch           2452357.8616758
	}
        Albedo              10
}

"INTELSAT 706" "Sol/Earth"
{
	Mesh "satellite.3ds"
	Radius 0.005

	EllipticalOrbit
	{
		Period          0.99730194
		SemiMajorAxis  42174.44377192765
		Eccentricity    4.375E-4
		Inclination     0.0159
		AscendingNode   40.8953
		ArgOfPericenter 57.5286
		MeanAnomaly     215.5895
		Epoch           2452360.7359397
	}
        Albedo              10
}

"GOES 9" "Sol/Earth"
{
	Mesh "satellite.3ds"
	Radius 0.005

	EllipticalOrbit
	{
		Period          0.9973016
		SemiMajorAxis  42174.433689553196
		Eccentricity    8.159E-4
		Inclination     0.1019
		AscendingNode   94.3553
		ArgOfPericenter 293.0932
		MeanAnomaly     303.4665
		Epoch           2452361.92701376
	}
        Albedo              10
}

"DBS 3" "Sol/Earth"
{
	Mesh "satellite.3ds"
	Radius 0.005

	EllipticalOrbit
	{
		Period          0.99727976
		SemiMajorAxis  42173.81866243279
		Eccentricity    2.06E-4
		Inclination     0.0173
		AscendingNode   94.1768
		ArgOfPericenter 22.1347
		MeanAnomaly     216.716
		Epoch           2452359.92393425
	}
        Albedo              10
}

"TDRS F7" "Sol/Earth"
{
	Mesh "satellite.3ds"
	Radius 0.005

	EllipticalOrbit
	{
		Period          0.9972614
		SemiMajorAxis  42173.30109515169
		Eccentricity    2.541E-4
		Inclination     5.2799
		AscendingNode   71.334
		ArgOfPericenter 354.2562
		MeanAnomaly     150.8623
		Epoch           2452360.79383037
	}
        Albedo              10
}

"PAS 4" "Sol/Earth"
{
	Mesh "satellite.3ds"
	Radius 0.005

	EllipticalOrbit
	{
		Period          0.9972785
		SemiMajorAxis  42173.78337385542
		Eccentricity    2.005E-4
		Inclination     0.0186
		AscendingNode   234.1545
		ArgOfPericenter 217.0249
		MeanAnomaly     234.6531
		Epoch           2452360.42241935
	}
        Albedo              10
}

"KOREASAT 1" "Sol/Earth"
{
	Mesh "satellite.3ds"
	Radius 0.005

	EllipticalOrbit
	{
		Period          0.99724543
		SemiMajorAxis  42172.8507418166
		Eccentricity    2.113E-4
		Inclination     2.6598
		AscendingNode   87.575
		ArgOfPericenter 20.5651
		MeanAnomaly     149.8378
		Epoch           2452359.30550712
	}
        Albedo              10
}

"JCSAT 3" "Sol/Earth"
{
	Mesh "satellite.3ds"
	Radius 0.005

	EllipticalOrbit
	{
		Period          0.99729866
		SemiMajorAxis  42174.351350116754
		Eccentricity    2.264E-4
		Inclination     0.0252
		AscendingNode   39.4813
		ArgOfPericenter 50.8231
		MeanAnomaly     144.7808
		Epoch           2452360.01592017
	}
        Albedo              10
}

"N-STAR-A" "Sol/Earth"
{
	Mesh "satellite.3ds"
	Radius 0.005

	EllipticalOrbit
	{
		Period          0.99731594
		SemiMajorAxis  42174.838663978946
		Eccentricity    3.352E-4
		Inclination     0.021
		AscendingNode   204.9854
		ArgOfPericenter 240.8671
		MeanAnomaly     149.2322
		Epoch           2452359.00755198
	}
        Albedo              10
}

